Russian LEO Navigation
STARLINK-1159           
1 45057U 20006P   25072.35573016  .00008496  00000+0  58831-3 0  9999
2 45057  53.0518 108.7068 0001696  98.9253 261.1928 15.06417223282342
STARLINK-1162           
1 45058U 20006Q   25073.25002315  .00219048  00000+0  12639-2 0  9991
2 45058  53.0448  75.3882 0008412  34.9729 234.9476 15.77463357282881
STARLINK-1166           
1 45060U 20006S   25073.22931041  .00001846  00000+0  14280-3 0  9998
2 45060  53.0529 104.7873 0001286  92.2584 267.8552 15.06400026282470
STARLINK-1169           
1 45061U 20006T   25073.23667269 -.00002833  00000+0 -17137-3 0  9991
2 45061  53.0537 104.7559 0001539  62.7474 297.3672 15.06394576282475
STARLINK-1171           
1 45062U 20006U   25073.22194860  .00003569  00000+0  25838-3 0  9995
2 45062  53.0526 104.8195 0001499  88.1345 271.9816 15.06398795282470
STARLINK-1133           
1 45064U 20006W   25073.23483773 -.00000092  00000+0  12713-4 0  9990
2 45064  53.0546  84.7598 0001390  97.3444 262.7703 15.06389829282762
STARLINK-1150           
1 45067U 20006Z   25073.22747578  .00003098  00000+0  22686-3 0  9995
2 45067  53.0521  84.7948 0001454  90.6514 269.4641 15.06391483282755
STARLINK-1161           
1 45068U 20006AA  25073.25002315  .00161586  00000+0  31642-2 0  9990
2 45068  53.0291  56.1288 0006030  70.5947 235.7013 15.46319870283150
STARLINK-1167           
1 45071U 20006AD  25073.19428642 -.00001152  00000+0 -58453-4 0  9997
2 45071  53.0547  84.9458 0001528 108.0187 252.0968 15.06393904282747
STARLINK-1168           
1 45072U 20006AE  25073.19798096 -.00001108  00000+0 -55488-4 0  9997
2 45072  53.0536  84.9280 0001454  90.9970 269.1186 15.06386090282756
STARLINK-1170           
1 45073U 20006AF  25073.21213749  .00127523  00000+0  10920-2 0  9996
2 45073  53.0535  76.2421 0001497  92.8413 267.2774 15.68553330282862
STARLINK-1172           
1 45074U 20006AG  25073.20904035 -.00001867  00000+0 -10648-3 0  9993
2 45074  53.0536  84.8785 0001763  92.0391 268.0799 15.06383940282759
STARLINK-1174           
1 45075U 20006AH  25072.91668981  .00200964  00000+0  13483-2 0  9994
2 45075  53.0533  76.8274 0002261  98.1274   7.6309 15.74111037  5817
STARLINK-1153           
1 45080U 20006AN  25073.18691417 -.00000460  00000+0 -12002-4 0  9999
2 45080  53.0541  84.9774 0001327  93.9368 266.1773 15.06391575282407
STARLINK-1151           
1 45081U 20006AP  25073.23853978  .00001753  00000+0  13659-3 0  9990
2 45081  53.0529  84.8211 0001485  96.8974 263.2184 15.06392648282764
STARLINK-1190           
1 45083U 20006AR  25073.11874572  .00001791  00000+0  13913-3 0  9997
2 45083  53.0537 105.2822 0001538  91.9484 268.1681 15.06392460282456
STARLINK-1173           
1 45084U 20006AS  25073.23300196  .00000485  00000+0  51452-4 0  9997
2 45084  53.0550  64.7692 0001566  89.5987 270.5182 15.06390926283143
STARLINK-1179           
1 45085U 20006AT  25073.22931799  .00002330  00000+0  17535-3 0  9990
2 45085  53.0531  64.7852 0001279  86.7743 273.3393 15.06373606283030
STARLINK-1185           
1 45087U 20006AV  25072.68379982  .00001975  00000+0  15149-3 0  9994
2 45087  53.0537  67.2360 0001444  92.3164 267.7991 15.06393255282610
STARLINK-1183           
1 45088U 20006AW  25073.23669905 -.00005314  00000+0 -33847-3 0  9992
2 45088  53.0528  64.7535 0001610 104.1367 255.9801 15.06357368282691
STARLINK-1176           
1 45090U 20006AY  25073.22099463 -.00000351  00000+0 -46768-5 0  9994
2 45090  53.0549  64.8152 0001356  86.1897 273.9247 15.06385719282692
STARLINK-1137           
1 45092U 20006BA  25072.98252664  .00244475  00000+0  11224-2 0  9993
2 45092  53.0518  53.4998 0000808  97.1668   6.3010 15.82446460283176
STARLINK-1142           
1 45093U 20006BB  25072.97084109  .00049323  00000+0  20983-2 0  9997
2 45093  53.0479  53.7555 0004095  71.9677 288.1764 15.22548123282827
STARLINK-1146           
1 45094U 20006BC  25073.20625122 -.00001082  00000+0 -53783-4 0  9999
2 45094  53.0582  64.8821 0001809 102.8736 257.2455 15.06382100283044
STARLINK-1147           
1 45095U 20006BD  25073.19988609 -.00001541  00000+0 -84588-4 0  9997
2 45095  53.0537  65.4948 0001419  95.1633 264.9518 15.06389990283037
STARLINK-1152           
1 45096U 20006BE  25073.25656729  .00012838  00000+0  81463-3 0  9997
2 45096  53.0539  63.8289 0002276  33.4795 326.6338 15.09224375283052
STARLINK-1184           
1 45098U 20006BG  25073.18508233  .00000837  00000+0  75103-4 0  9998
2 45098  53.0559  64.9835 0001618  88.2406 271.8769 15.06388364281234
STARLINK-1193           
1 45100U 20006BJ  25073.24774607  .00002018  00000+0  15437-3 0  9995
2 45100  53.0537  64.7024 0001443  96.6636 263.4518 15.06391752283041
STARLINK-1143           
1 45179U 20012B   25072.71351297  .00083993  00000+0  43386-2 0  9999
2 45179  53.0509 224.5296 0008281 162.5784 197.5495 15.15553406280467
STARLINK-1200           
1 45181U 20012D   25072.74275256 -.00004249  00000+0 -26662-3 0  9993
2 45181  53.0535 226.9694 0001554 107.7624 252.3534 15.06389938280435
STARLINK-1201           
1 45182U 20012E   25072.63032981  .00005966  00000+0  41906-3 0  9991
2 45182  53.0526 207.4744 0001503  78.5417 281.5740 15.06398754280546
STARLINK-1202           
1 45183U 20012F   25072.71328392  .00005205  00000+0  36806-3 0  9994
2 45183  53.0546 227.1052 0001146  68.0952 292.0159 15.06396479280432
